NORAD_CAT_ID,OBJECT_NAME,OBJECT_TYPE,EPOCH,MEAN_MOTION,ECCENTRICITY,INCLINATION,RA_OF_ASC_NODE,ARG_OF_PERICENTER,MEAN_ANOMALY,BSTAR,MEAN_MOTION_DOT,MEAN_MOTION_DDOT,TLE_LINE0,TLE_LINE1,TLE_LINE2,SEMIMAJOR_AXIS,PERIOD,APOGEE,PERIGEE,DECAYED
53626.0,STARLINK-4554,PAYLOAD,2023-05-02 13:23:48,15.08858482,9.97e-05,53.2165,232.0699,71.698,288.4121,0.0001239,1.686e-05,0.0,0 STARLINK-4554,1 53626U 22104AQ  23122.55819589  .00001686  00000-0  12390-3 0  9990,2 53626  53.2165 232.0699 0000997  71.6980 288.4121 15.08858482 37749,6917.824,95.436,540.379,538.999,0.0
53626.0,STARLINK-4554,PAYLOAD,2023-05-02 16:34:33,15.08864704,9.75e-05,53.2166,231.4743,79.515,280.5952,0.00016159,2.287e-05,0.0,0 STARLINK-4554,1 53626U 22104AQ  23122.69066869  .00002287  00000-0  16159-3 0  9995,2 53626  53.2166 231.4743 0000975  79.5150 280.5952 15.08864704 37766,6917.805,95.436,540.344,538.995,0.0
53626.0,STARLINK-4554,PAYLOAD,2023-05-02 19:45:19,15.08870581,9.39e-05,53.2166,230.8805,71.6392,288.4703,0.00019123,2.759e-05,0.0,0 STARLINK-4554,1 53626U 22104AQ  23122.82314198  .00002759  00000-0  19123-3 0  9999,2 53626  53.2166 230.8805 0000939  71.6392 288.4703 15.08870581 38479,6917.787,95.436,540.301,539.002,0.0
53626.0,STARLINK-4554,PAYLOAD,2023-05-03 00:31:32,15.08817602,0.0001149,53.2173,229.9879,93.5566,266.5558,-0.00027463,-4.653e-05,0.0,0 STARLINK-4554,1 53626U 22104AQ  23123.02190942 -.00004653  00000-0 -27463-3 0  9994,2 53626  53.2173 229.9879 0001149  93.5566 266.5558 15.08817602 37814,6917.949,95.439,540.609,539.019,0.0
53626.0,STARLINK-4554,PAYLOAD,2023-05-03 13:14:37,15.08824273,8.36e-05,53.2165,227.6099,87.3014,272.8074,-0.00011113,-2.055e-05,0.0,0 STARLINK-4554,1 53626U 22104AQ  23123.55182441 -.00002055  00000-0 -11113-3 0  9996,2 53626  53.2165 227.6099 0000836  87.3014 272.8074 15.08824273 37898,6917.928,95.439,540.372,539.215,0.0
53626.0,STARLINK-4554,PAYLOAD,2023-05-03 14:50:00,15.08826255,0.0001012,53.2166,227.3114,87.9884,272.1224,-9.8634e-05,-1.857e-05,0.0,0 STARLINK-4554,1 53626U 22104AQ  23123.61806349 -.00001857  00000-0 -98634-4 0  9996,2 53626  53.2166 227.3114 0001012  87.9884 272.1224 15.08826255 38592,6917.922,95.438,540.487,539.087,0.0
53626.0,STARLINK-4554,PAYLOAD,2023-05-04 00:22:19,15.08836547,0.0001051,53.2166,225.5312,75.9891,284.1218,-0.00010451,-1.95e-05,0.0,0 STARLINK-4554,1 53626U 22104AQ  23124.01549927 -.00001950  00000-0 -10451-3 0  9991,2 53626  53.2166 225.5312 0001051  75.9891 284.1218 15.08836547 37961,6917.891,95.438,540.483,539.029,0.0
53626.0,STARLINK-4554,PAYLOAD,2023-05-04 13:05:23,15.08851222,9.49e-05,53.2171,223.1485,88.1195,271.9906,-0.00011234,-2.076e-05,0.0,0 STARLINK-4554,1 53626U 22104AQ  23124.54540937 -.00002076  00000-0 -11234-3 0  9991,2 53626  53.2171 223.1485 0000949  88.1195 271.9906 15.08851222 38045,6917.846,95.437,540.368,539.055,0.0
53626.0,STARLINK-4554,PAYLOAD,2023-05-05 11:20:46,15.0883853,8.95e-05,53.2165,218.9855,102.4173,257.692,0.00020515,2.979e-05,0.0,0 STARLINK-4554,1 53626U 22104AQ  23125.47276386  .00002979  00000-0  20515-3 0  9990,2 53626  53.2165 218.9855 0000895 102.4173 257.6920 15.08838530 38872,6917.885,95.438,540.369,539.131,0.0
53626.0,STARLINK-4554,PAYLOAD,2023-05-06 06:25:25,15.08834346,0.0001118,53.2174,215.4194,53.9512,306.1584,-1.2998e-05,-4.95e-06,0.0,0 STARLINK-4554,1 53626U 22104AQ  23126.26765940 -.00000495  00000-0 -12998-4 0  9997,2 53626  53.2174 215.4194 0001118  53.9512 306.1584 15.08834346 38301,6917.898,95.438,540.536,538.989,0.0
53626.0,STARLINK-4554,PAYLOAD,2023-05-06 12:46:58,15.08837359,8.1e-05,53.2162,214.2281,82.7066,277.4018,-2.681e-05,-7.14e-06,0.0,0 STARLINK-4554,1 53626U 22104AQ  23126.53261759 -.00000714  00000-0 -26810-4 0  9998,2 53626  53.2162 214.2281 0000810  82.7066 277.4018 15.08837359 39034,6917.888,95.438,540.314,539.193,0.0
53626.0,STARLINK-4554,PAYLOAD,2023-05-07 12:37:44,15.08846542,0.0001045,53.2157,209.7678,99.3106,260.8004,-7.4041e-05,-1.466e-05,0.0,0 STARLINK-4554,1 53626U 22104AQ  23127.52621438 -.00001466  00000-0 -74041-4 0  9996,2 53626  53.2157 209.7678 0001045  99.3106 260.8004 15.08846542 38491,6917.86,95.437,540.448,539.002,0.0
53626.0,STARLINK-4554,PAYLOAD,2023-05-08 04:31:37,15.08828283,0.0001077,53.2173,206.7952,104.9743,255.1368,-8.247e-06,-4.19e-06,0.0,0 STARLINK-4554,1 53626U 22104AQ  23128.18862628 -.00000419  00000-0 -82470-5 0  9990,2 53626  53.2173 206.7952 0001077 104.9743 255.1368 15.08828283 38599,6917.916,95.438,540.526,539.036,0.0
53626.0,STARLINK-4554,PAYLOAD,2023-05-08 12:28:32,15.08831855,0.0001041,53.2172,205.3099,105.8437,254.267,2.834e-05,1.63e-06,0.0,0 STARLINK-4554,1 53626U 22104AQ  23128.51982472  .00000163  00000-0  28340-4 0  9996,2 53626  53.2172 205.3099 0001041 105.8437 254.2670 15.08831855 39334,6917.905,95.438,540.49,539.05,0.0
53626.0,STARLINK-4554,PAYLOAD,2023-05-09 12:19:19,15.08839205,0.0001161,53.2175,200.8483,106.3355,253.7765,7.3603e-05,8.84e-06,0.0,0 STARLINK-4554,1 53626U 22104AQ  23129.51342154  .00000884  00000-0  73603-4 0  9996,2 53626  53.2175 200.8483 0001161 106.3355 253.7765 15.08839205 39484,6917.883,95.438,540.551,538.945,0.0
53626.0,STARLINK-4554,PAYLOAD,2023-05-10 12:10:07,15.08837953,0.0001025,53.2166,196.3861,96.855,263.2559,4.4185e-05,4.15e-06,0.0,0 STARLINK-4554,1 53626U 22104AQ  23130.50702626  .00000415  00000-0  44185-4 0  9994,2 53626  53.2166 196.3861 0001025  96.8550 263.2559 15.08837953 39634,6917.887,95.438,540.461,539.043,0.0
53626.0,STARLINK-4554,PAYLOAD,2023-05-10 21:42:25,15.08840584,9.85e-05,53.2167,194.6011,102.9403,257.17,5.0722e-05,5.2e-06,0.0,0 STARLINK-4554,1 53626U 22104AQ  23130.90446383  .00000520  00000-0  50722-4 0  9994,2 53626  53.2167 194.6011 0000985 102.9403 257.1700 15.08840584 39008,6917.879,95.438,540.425,539.062,0.0
53626.0,STARLINK-4554,PAYLOAD,2023-05-11 10:25:30,15.08849872,0.0001188,53.2165,192.2242,73.4048,286.7074,1.6397e-06,-2.62e-06,0.0,0 STARLINK-4554,1 53626U 22104AQ  23131.43438069 -.00000262  00000-0  16397-5 0  9990,2 53626  53.2165 192.2242 0001188  73.4048 286.7074 15.08849872 39774,6917.85,95.437,540.537,538.893,0.0
53626.0,STARLINK-4554,PAYLOAD,2023-05-11 21:33:12,15.08843915,0.0001249,53.2165,190.1429,71.0858,289.0269,8.1882e-05,1.016e-05,0.0,0 STARLINK-4554,1 53626U 22104AQ  23131.89805958  .00001016  00000-0  81882-4 0  9992,2 53626  53.2165 190.1429 0001249  71.0858 289.0269 15.08843915 39841,6917.868,95.437,540.597,538.869,0.0
53626.0,STARLINK-4554,PAYLOAD,2023-05-12 08:40:55,15.08817612,0.0001052,53.2159,188.062,65.7872,294.323,0.00022045,3.22e-05,0.0,0 STARLINK-4554,1 53626U 22104AQ  23132.36175011  .00003220  00000-0  22045-3 0  9999,2 53626  53.2159 188.0620 0001052  65.7872 294.3230 15.08817612 39225,6917.949,95.439,540.542,539.086,0.0
53626.0,STARLINK-4554,PAYLOAD,2023-05-12 22:59:22,15.08844321,0.000104,53.216,185.3836,136.0043,224.1032,-5.3113e-05,-1.133e-05,0.0,0 STARLINK-4554,1 53626U 22104AQ  23132.95790123 -.00001133  00000-0 -53113-4 0  9995,2 53626  53.2160 185.3836 0001040 136.0043 224.1032 15.08844321 39313,6917.867,95.437,540.452,539.013,0.0
53626.0,STARLINK-4554,PAYLOAD,2023-05-13 10:07:04,15.08848546,0.0001129,53.2164,183.3034,102.5249,257.5869,-2.041e-05,-6.13e-06,0.0,0 STARLINK-4554,1 53626U 22104AQ  23133.42157969 -.00000613  00000-0 -20410-4 0  9999,2 53626  53.2164 183.3034 0001129 102.5249 257.5869 15.08848546 40075,6917.854,95.437,540.5,538.938,0.0
53626.0,STARLINK-4554,PAYLOAD,2023-05-14 06:47:06,15.08832173,0.0001252,53.2156,179.4352,116.4574,243.6546,-1.7856e-05,-5.72e-06,0.0,0 STARLINK-4554,1 53626U 22104AQ  23134.28271050 -.00000572  00000-0 -17856-4 0  9996,2 53626  53.2156 179.4352 0001252 116.4574 243.6546 15.08832173 39511,6917.904,95.438,540.635,538.903,0.0
53626.0,STARLINK-4554,PAYLOAD,2023-05-14 13:08:38,15.08834496,0.0001073,53.2161,178.2477,101.5535,258.5578,7.0582e-07,-2.77e-06,0.0,0 STARLINK-4554,1 53626U 22104AQ  23134.54766992 -.00000277  00000-0  70582-6 0  9997,2 53626  53.2161 178.2477 0001073 101.5535 258.5578 15.08834496 40247,6917.897,95.438,540.505,539.02,0.0
53626.0,STARLINK-4554,PAYLOAD,2023-05-14 19:30:11,15.0883179,0.0001083,53.2159,177.0582,93.0608,267.0508,-2.137e-05,-6.28e-06,0.0,0 STARLINK-4554,1 53626U 22104AQ  23134.81263363 -.00000628  00000-0 -21370-4 0  9991,2 53626  53.2159 177.0582 0001083  93.0608 267.0508 15.08831790 40281,6917.905,95.438,540.52,539.021,0.0
53626.0,STARLINK-4554,PAYLOAD,2023-05-15 09:48:39,15.08835118,0.0001122,53.2159,174.3825,97.7925,262.3195,-1.535e-05,-5.32e-06,0.0,0 STARLINK-4554,1 53626U 22104AQ  23135.40879369 -.00000532  00000-0 -15350-4 0  9991,2 53626  53.2159 174.3825 0001122  97.7925 262.3195 15.08835118 39688,6917.895,95.438,540.536,538.984,0.0
53626.0,STARLINK-4554,PAYLOAD,2023-05-15 19:20:58,15.08838868,0.0001081,53.2161,172.5983,97.6643,262.4472,-4.3154e-05,-9.74e-06,0.0,0 STARLINK-4554,1 53626U 22104AQ  23135.80623302 -.00000974  00000-0 -43154-4 0  9992,2 53626  53.2161 172.5983 0001081  97.6643 262.4472 15.08838868 40435,6917.884,95.438,540.497,539.001,0.0
53626.0,STARLINK-4554,PAYLOAD,2023-05-16 11:14:49,15.0883804,0.0001001,53.2155,169.6238,91.1457,268.965,5.7791e-05,6.32e-06,0.0,0 STARLINK-4554,1 53626U 22104AQ  23136.46863244  .00000632  00000-0  57791-4 0  9997,2 53626  53.2155 169.6238 0001001  91.1457 268.9650 15.08838040 39846,6917.886,95.438,540.444,539.059,0.0
53626.0,STARLINK-4554,PAYLOAD,2023-05-17 19:02:32,15.08838718,0.0001061,53.2158,163.676,87.0695,273.0419,3.3192e-05,2.4e-06,0.0,0 STARLINK-4554,1 53626U 22104AQ  23137.79343334  .00000240  00000-0  33192-4 0  9991,2 53626  53.2158 163.6760 0001061  87.0695 273.0419 15.08838718 40043,6917.884,95.438,540.483,539.015,0.0
53626.0,STARLINK-4554,PAYLOAD,2023-05-18 09:21:00,15.08839573,0.0001112,53.2158,160.9996,87.7871,272.3248,2.277e-06,-2.52e-06,0.0,0 STARLINK-4554,1 53626U 22104AQ  23138.38959379 -.00000252  00000-0  22770-5 0  9994,2 53626  53.2158 160.9996 0001112  87.7871 272.3248 15.08839573 40822,6917.882,95.438,540.516,538.977,0.0
